COMMENT,ORIGINATOR,NORAD_CAT_ID,OBJECT_NAME,OBJECT_TYPE,CLASSIFICATION_TYPE,INTLDES,EPOCH,EPOCH_MICROSECONDS,MEAN_MOTION,ECCENTRICITY,INCLINATION,RA_OF_ASC_NODE,ARG_OF_PERICENTER,MEAN_ANOMALY,EPHEMERIS_TYPE,ELEMENT_SET_NO,REV_AT_EPOCH,BSTAR,MEAN_MOTION_DOT,MEAN_MOTION_DDOT,FILE,TLE_LINE0,TLE_LINE1,TLE_LINE2,OBJECT_ID,OBJECT_NUMBER,SEMIMAJOR_AXIS,PERIOD,APOGEE,PERIGEE,DECAYED
"GENERATED VIA SPACETRACK.ORG API","18 SPCS","55087","SPACEBEE-167","PAYLOAD","U","23001CG","2023-11-03 03:42:52","452000","15.25339371","0.0011899","97.4584","6.2145","233.328","126.6864","0","999","4623","0.0011195","0.00028283","0","4068165","0 SPACEBEE-167","1 55087U 23001CG  23307.15477375  .00028283  00000-0  11195-2 0  9997","2 55087  97.4584   6.2145 0011899 233.3280 126.6864 15.25339371 46238","2023-001CG","55087","6867.904","94.405","497.941","481.596","0"
"GENERATED VIA SPACETRACK.ORG API","18 SPCS","55087","SPACEBEE-167","PAYLOAD","U","23001CG","2023-11-03 16:18:35","613504","15.25371322","0.0011969","97.4584","6.7373","231.2668","128.7501","0","999","4631","0.0011599","0.00029339","0","4068472","0 SPACEBEE-167","1 55087U 23001CG  23307.67957886  .00029339  00000-0  11599-2 0  9995","2 55087  97.4584   6.7373 0011969 231.2668 128.7501 15.25371322 46313","2023-001CG","55087","6867.808","94.403","497.893","481.453","0"
"GENERATED VIA SPACETRACK.ORG API","18 SPCS","55087","SPACEBEE-167","PAYLOAD","U","23001CG","2023-11-03 16:18:35","613504","15.25371322","0.0011969","97.4584","6.7373","231.2668","128.7501","0","999","4631","0.0011599","0.00029339","0","4068824","0 SPACEBEE-167","1 55087U 23001CG  23307.67957886  .00029339  00000-0  11599-2 0  9995","2 55087  97.4584   6.7373 0011969 231.2668 128.7501 15.25371322 46313","2023-001CG","55087","6867.808","94.403","497.893","481.453","0"
"GENERATED VIA SPACETRACK.ORG API","18 SPCS","55087","SPACEBEE-167","PAYLOAD","U","23001CG","2023-11-04 03:19:50","109888","15.25397971","0.0011967","97.4584","7.1951","229.8198","130.1993","0","999","4638","0.0011709","0.00029642","0","4070271","0 SPACEBEE-167","1 55087U 23001CG  23308.13877442  .00029642  00000-0  11709-2 0  9996","2 55087  97.4584   7.1951 0011967 229.8198 130.1993 15.25397971 46386","2023-001CG","55087","6867.728","94.402","497.811","481.374","0"
"GENERATED VIA SPACETRACK.ORG API","18 SPCS","55087","SPACEBEE-167","PAYLOAD","U","23001CG","2023-11-04 15:55:31","489824","15.25430691","0.0012026","97.4585","7.7179","227.7616","132.2602","0","999","4646","0.0012008","0.00030435","0","4070865","0 SPACEBEE-167","1 55087U 23001CG  23308.66355891  .00030435  00000-0  12008-2 0  9998","2 55087  97.4585   7.7179 0012026 227.7616 132.2602 15.25430691 46460","2023-001CG","55087","6867.629","94.400","497.753","481.235","0"
"GENERATED VIA SPACETRACK.ORG API","18 SPCS","55087","SPACEBEE-167","PAYLOAD","U","23001CG","2023-11-05 02:56:44","262528","15.25469502","0.0011994","97.4586","8.1758","226.2496","133.775","0","999","4653","0.0015604","0.00039665","0","4071331","0 SPACEBEE-167","1 55087U 23001CG  23309.12273452  .00039665  00000-0  15604-2 0  9991","2 55087  97.4586   8.1758 0011994 226.2496 133.7750 15.25469502 46533","2023-001CG","55087","6867.513","94.397","497.615","481.141","0"
"GENERATED VIA SPACETRACK.ORG API","18 SPCS","55087","SPACEBEE-167","PAYLOAD","U","23001CG","2023-11-05 02:56:44","262528","15.25469502","0.0011994","97.4586","8.1758","226.2496","133.775","0","999","4653","0.0015604","0.00039665","0","4072138","0 SPACEBEE-167","1 55087U 23001CG  23309.12273452  .00039665  00000-0  15604-2 0  9991","2 55087  97.4586   8.1758 0011994 226.2496 133.7750 15.25469502 46533","2023-001CG","55087","6867.513","94.397","497.615","481.141","0"
"GENERATED VIA SPACETRACK.ORG API","18 SPCS","55087","SPACEBEE-167","PAYLOAD","U","23001CG","2023-11-05 17:06:50","488704","15.25521391","0.0012009","97.4587","8.7641","223.9437","136.0847","0","999","4662","0.0014961","0.00038079","0","4072675","0 SPACEBEE-167","1 55087U 23001CG  23309.71308436  .00038079  00000-0  14961-2 0  9990","2 55087  97.4587   8.7641 0012009 223.9437 136.0847 15.25521391 46626","2023-001CG","55087","6867.357","94.394","497.469","480.975","0"
"GENERATED VIA SPACETRACK.ORG API","18 SPCS","55087","SPACEBEE-167","PAYLOAD","U","23001CG","2023-11-06 02:33:33","194016","15.25596582","0.0011997","97.4587","9.1564","222.3257","137.7056","0","999","4668","0.0029425","0.00075506","0","4073506","0 SPACEBEE-167","1 55087U 23001CG  23310.10663419  .00075506  00000-0  29425-2 0  9997","2 55087  97.4587   9.1564 0011997 222.3257 137.7056 15.25596582 46683","2023-001CG","55087","6867.132","94.389","497.235","480.758","0"
"GENERATED VIA SPACETRACK.ORG API","18 SPCS","55087","SPACEBEE-167","PAYLOAD","U","23001CG","2023-11-06 10:25:47","945280","15.25633829","0.0011981","97.4587","9.4831","221.0407","138.993","0","999","4673","0.0026384","0.000677","0","4074285","0 SPACEBEE-167","1 55087U 23001CG  23310.43458270  .00067700  00000-0  26384-2 0  9998","2 55087  97.4587   9.4831 0011981 221.0407 138.9930 15.25633829 46735","2023-001CG","55087","6867.020","94.387","497.112","480.657","0"
"GENERATED VIA SPACETRACK.ORG API","18 SPCS","55087","SPACEBEE-167","PAYLOAD","U","23001CG","2023-11-06 10:25:47","945280","15.25633829","0.0011981","97.4587","9.4831","221.0407","138.993","0","999","4673","0.0026384","0.000677","0","4074845","0 SPACEBEE-167","1 55087U 23001CG  23310.43458270  .00067700  00000-0  26384-2 0  9998","2 55087  97.4587   9.4831 0011981 221.0407 138.9930 15.25633829 46735","2023-001CG","55087","6867.020","94.387","497.112","480.657","0"
"GENERATED VIA SPACETRACK.ORG API","18 SPCS","55087","SPACEBEE-167","PAYLOAD","U","23001CG","2023-11-07 03:44:42","347616","15.2569154","0.0012032","97.4588","10.2026","218.3849","141.6534","0","999","4684","0.0017078","0.00043733","0","4075698","0 SPACEBEE-167","1 55087U 23001CG  23311.15604569  .00043733  00000-0  17078-2 0  9992","2 55087  97.4588  10.2026 0012032 218.3849 141.6534 15.25691540 46846","2023-001CG","55087","6866.847","94.383","496.974","480.449","0"
"GENERATED VIA SPACETRACK.ORG API","18 SPCS","55087","SPACEBEE-167","PAYLOAD","U","23001CG","2023-11-07 10:02:28","746528","15.2571407","0.0012062","97.4588","10.4644","217.2822","142.758","0","999","4688","0.0016835","0.00043136","0","4076432","0 SPACEBEE-167","1 55087U 23001CG  23311.41838827  .00043136  00000-0  16835-2 0  9994","2 55087  97.4588  10.4644 0012062 217.2822 142.7580 15.25714070 46887","2023-001CG","55087","6866.779","94.382","496.927","480.361","0"
"GENERATED VIA SPACETRACK.ORG API","18 SPCS","55087","SPACEBEE-167","PAYLOAD","U","23001CG","2023-11-07 17:54:41","420736","15.25729829","0.0012107","97.4587","10.7914","216.3291","143.7126","0","999","4693","0.0011818","0.00030222","0","4077003","0 SPACEBEE-167","1 55087U 23001CG  23311.74631274  .00030222  00000-0  11818-2 0  9995","2 55087  97.4587  10.7914 0012107 216.3291 143.7126 15.25729829 46930","2023-001CG","55087","6866.732","94.381","496.910","480.283","0"
"GENERATED VIA SPACETRACK.ORG API","18 SPCS","55087","SPACEBEE-167","PAYLOAD","U","23001CG","2023-11-08 03:21:20","15136","15.25762406","0.0012143","97.4586","11.1839","215.1968","144.8469","0","999","4699","0.0014058","0.00036028","0","4078279","0 SPACEBEE-167","1 55087U 23001CG  23312.13981499  .00036028  00000-0  14058-2 0  9995","2 55087  97.4586  11.1839 0012143 215.1968 144.8469 15.25762406 46994","2023-001CG","55087","6866.634","94.379","496.837","480.161","0"
"GENERATED VIA SPACETRACK.ORG API","18 SPCS","55087","SPACEBEE-167","PAYLOAD","U","23001CG","2023-11-08 03:21:20","15136","15.25762406","0.0012143","97.4586","11.1839","215.1968","144.8469","0","999","4699","0.0014058","0.00036028","0","4078352","0 SPACEBEE-167","1 55087U 23001CG  23312.13981499  .00036028  00000-0  14058-2 0  9995","2 55087  97.4586  11.1839 0012143 215.1968 144.8469 15.25762406 46994","2023-001CG","55087","6866.634","94.379","496.837","480.161","0"
"GENERATED VIA SPACETRACK.ORG API","18 SPCS","55087","SPACEBEE-167","PAYLOAD","U","23001CG","2023-11-08 17:31:16","819392","15.25801538","0.0012182","97.4586","11.7727","213.1476","146.9","0","999","4708","0.0013053","0.00033476","0","4078917","0 SPACEBEE-167","1 55087U 23001CG  23312.73005578  .00033476  00000-0  13053-2 0  9994","2 55087  97.4586  11.7727 0012182 213.1476 146.9000 15.25801538 47086","2023-001CG","55087","6866.517","94.377","496.746","480.017","0"
"GENERATED VIA SPACETRACK.ORG API","18 SPCS","55087","SPACEBEE-167","PAYLOAD","U","23001CG","2023-11-09 02:57:53","972640","15.25827533","0.0012195","97.4586","12.1651","211.821","148.2292","0","999","4714","0.0013039","0.00033466","0","4080359","0 SPACEBEE-167","1 55087U 23001CG  23313.12354135  .00033466  00000-0  13039-2 0  9997","2 55087  97.4586  12.1651 0012195 211.8210 148.2292 15.25827533 47140","2023-001CG","55087","6866.439","94.375","496.677","479.930","0"
"GENERATED VIA SPACETRACK.ORG API","18 SPCS","55087","SPACEBEE-167","PAYLOAD","U","23001CG","2023-11-09 17:07:48","609984","15.25865183","0.0012217","97.4586","12.7537","209.4552","150.5999","0","999","4723","0.0012098","0.00031071","0","4080490","0 SPACEBEE-167","1 55087U 23001CG  23313.71375706  .00031071  00000-0  12098-2 0  9993","2 55087  97.4586  12.7537 0012217 209.4552 150.5999 15.25865183 47239","2023-001CG","55087","6866.326","94.373","496.579","479.802","0"
"GENERATED VIA SPACETRACK.ORG API","18 SPCS","55087","SPACEBEE-167","PAYLOAD","U","23001CG","2023-11-09 17:07:48","609984","15.25865183","0.0012217","97.4586","12.7537","209.4552","150.5999","0","999","4723","0.0012098","0.00031071","0","4080838","0 SPACEBEE-167","1 55087U 23001CG  23313.71375706  .00031071  00000-0  12098-2 0  9993","2 55087  97.4586  12.7537 0012217 209.4552 150.5999 15.25865183 47239","2023-001CG","55087","6866.326","94.373","496.579","479.802","0"
